[{"OBJECT_NAME":"STARLINK-1039","OBJECT_ID":"2019-074AH","EPOCH":"2026-03-09T14:46:14.325312","MEAN_MOTION":15.21697508,"ECCENTRICITY":0.000318,"INCLINATION":53.0506,"RA_OF_ASC_NODE":215.4382,"ARG_OF_PERICENTER":172.5659,"MEAN_ANOMALY":187.5385,"EPHEMERIS_TYPE":0,"CLASSIFICATION_TYPE":"U","NORAD_CAT_ID":44744,"ELEMENT_SET_NO":999,"REV_AT_EPOCH":34834,"BSTAR":0.0027625,"MEAN_MOTION_DOT":0.00063546,"MEAN_MOTION_DDOT":0},{"OBJECT_NAME":"COSMOS 2579","OBJECT_ID":"2024-197A","EPOCH":"2026-03-09T23:06:38.118816","MEAN_MOTION":15.2412329,"ECCENTRICITY":0.00026117,"INCLINATION":97.557,"RA_OF_ASC_NODE":352.0823,"ARG_OF_PERICENTER":56.3903,"MEAN_ANOMALY":303.7583,"EPHEMERIS_TYPE":0,"CLASSIFICATION_TYPE":"U","NORAD_CAT_ID":61730,"ELEMENT_SET_NO":999,"REV_AT_EPOCH":7535,"BSTAR":0.00021686366,"MEAN_MOTION_DOT":5.199e-5,"MEAN_MOTION_DDOT":0}]
